0 ARIANE 1 DEB
1 25765U 79104G   13282.35931809  .00001139  00000-0  21175-2 0  2052
2 25765 019.9084 088.6119 5778974 286.4694 341.9127 04.20169810224676
0 ARIANE 1 DEB
1 25765U 79104G   13288.30626392  .00001812  00000-0  35024-2 0  2068
2 25765 019.9082 083.8016 5778830 295.2136 337.3952 04.20190175224928
0 ARIANE 1 DEB
1 25765U 79104G   13289.41446859  .00001373  00000-0  26791-2 0  2073
2 25765 019.9083 082.9053 5778832 296.8433 213.7417 04.20194698224971
0 ARIANE 1 DEB
1 25765U 79104G   13294.25442247  .00001627  00000-0  30542-2 0  2080
2 25765 019.9076 078.9882 5778654 303.9635 335.2009 04.20213327225175
0 ARIANE 1 DEB
1 25765U 79104G   13295.19664896  .00001718  00000-0  32209-2 0  2094
2 25765 019.9095 078.2274 5778644 305.3468 320.5575 04.20216284225218
